SENTINEL-3A             
1 41335U 16011A   26188.76462175  .00000074  00000+0  48594-4 0  9992
2 41335  98.6240 255.8518 0001410  92.4321 267.7020 14.26738386540997
SENTINEL-3B             
1 43437U 18039A   26188.73775075  .00000071  00000+0  47424-4 0  9990
2 43437  98.6239 255.9743 0000978 119.1768 240.9511 14.26740626427050
