{"fetched_at":"2026-07-08T07:04:16.930Z","source":"https://celestrak.org/NORAD/elements/gp.php?NAME=SENTINEL&FORMAT=JSON","constellation":"sentinel-3","records":[{"OBJECT_NAME":"SENTINEL-3A","OBJECT_ID":"2016-011A","EPOCH":"2026-07-07T18:21:03.319200","CLASSIFICATION_TYPE":"U","MEAN_MOTION":14.26738386,"ECCENTRICITY":0.000141,"INCLINATION":98.624,"RA_OF_ASC_NODE":255.8518,"ARG_OF_PERICENTER":92.4321,"MEAN_ANOMALY":267.702,"EPHEMERIS_TYPE":0,"NORAD_CAT_ID":41335,"ELEMENT_SET_NO":999,"REV_AT_EPOCH":54099,"BSTAR":0.000048594,"MEAN_MOTION_DOT":7.4e-7,"MEAN_MOTION_DDOT":0},{"OBJECT_NAME":"SENTINEL-3B","OBJECT_ID":"2018-039A","EPOCH":"2026-07-07T17:42:21.664800","CLASSIFICATION_TYPE":"U","MEAN_MOTION":14.26740626,"ECCENTRICITY":0.0000978,"INCLINATION":98.6239,"RA_OF_ASC_NODE":255.9743,"ARG_OF_PERICENTER":119.1768,"MEAN_ANOMALY":240.9511,"EPHEMERIS_TYPE":0,"NORAD_CAT_ID":43437,"ELEMENT_SET_NO":999,"REV_AT_EPOCH":42705,"BSTAR":0.000047424,"MEAN_MOTION_DOT":7.1e-7,"MEAN_MOTION_DDOT":0}]}
